{
  "type": "FeatureCollection",
  "features": [
    {
      "type": "Feature",
      "properties": {
        "norad_id": 35771,
        "name": "COSMOS 2251 DEB",
        "group": "cosmos-2251-debris",
        "lat": -28.728401976747772,
        "lon": 128.3051721768023,
        "alt_km": 704.5961168083068,
        "timestamp": "2025-12-18T23:35:49.459849+00:00",
        "meta_object_name": "COSMOS 2251 DEB",
        "meta_object_id": "1993-036ARR",
        "meta_epoch": "2025-12-15T14:45:16.238592",
        "meta_mean_motion": 14.13430046,
        "meta_eccentricity": 0.02280549,
        "meta_inclination": 74.1561,
        "meta_ra_of_asc_node": 305.27,
        "meta_arg_of_pericenter": 242.9998,
        "meta_mean_anomaly": 114.7698,
        "meta_ephemeris_type": 0,
        "meta_classification_type": "U",
        "meta_norad_cat_id": 35771,
        "meta_element_set_no": 999,
        "meta_rev_at_epoch": 82901,
        "meta_bstar": 0.0026764238,
        "meta_mean_motion_dot": 6.427e-05,
        "meta_mean_motion_ddot": 0,
        "tle_line1": "1 35771U 93036ARR 25349.61477128  .00006427  00000+0  26764-2 0  9998",
        "tle_line2": "2 35771  74.1561 305.2700 0228054 242.9998 114.7698 14.13430046829012"
      },
      "geometry": {
        "type": "Point",
        "coordinates": [
          128.3051721768023,
          -28.728401976747772
        ]
      }
    },
    {
      "type": "Feature",
      "properties": {
        "norad_id": 35773,
        "name": "COSMOS 2251 DEB",
        "group": "cosmos-2251-debris",
        "lat": 72.52297204971573,
        "lon": 83.21873992504781,
        "alt_km": 651.2967397248149,
        "timestamp": "2025-12-18T23:35:49.459859+00:00",
        "meta_object_name": "COSMOS 2251 DEB",
        "meta_object_id": "1993-036ART",
        "meta_epoch": "2025-12-18T08:22:33.568032",
        "meta_mean_motion": 14.62099226,
        "meta_eccentricity": 0.00453246,
        "meta_inclination": 74.0074,
        "meta_ra_of_asc_node": 330.0608,
        "meta_arg_of_pericenter": 128.4715,
        "meta_mean_anomaly": 232.0532,
        "meta_ephemeris_type": 0,
        "meta_classification_type": "U",
        "meta_norad_cat_id": 35773,
        "meta_element_set_no": 999,
        "meta_rev_at_epoch": 86921,
        "meta_bstar": 0.00045597488,
        "meta_mean_motion_dot": 2.295e-05,
        "meta_mean_motion_ddot": 0,
        "tle_line1": "1 35773U 93036ART 25352.34899963  .00002295  00000+0  45597-3 0  9994",
        "tle_line2": "2 35773  74.0074 330.0608 0045324 128.4715 232.0532 14.62099226869219"
      },
      "geometry": {
        "type": "Point",
        "coordinates": [
          83.21873992504781,
          72.52297204971573
        ]
      }
    },
    {
      "type": "Feature",
      "properties": {
        "norad_id": 35777,
        "name": "COSMOS 2251 DEB",
        "group": "cosmos-2251-debris",
        "lat": 60.30715448531537,
        "lon": -16.520245520465302,
        "alt_km": 1358.137543871857,
        "timestamp": "2025-12-18T23:35:49.459870+00:00",
        "meta_object_name": "COSMOS 2251 DEB",
        "meta_object_id": "1993-036ARX",
        "meta_epoch": "2025-12-18T07:54:51.389280",
        "meta_mean_motion": 13.41305779,
        "meta_eccentricity": 0.04520138,
        "meta_inclination": 73.7704,
        "meta_ra_of_asc_node": 313.8075,
        "meta_arg_of_pericenter": 207.8246,
        "meta_mean_anomaly": 306.1255,
        "meta_ephemeris_type": 0,
        "meta_classification_type": "U",
        "meta_norad_cat_id": 35777,
        "meta_element_set_no": 999,
        "meta_rev_at_epoch": 79759,
        "meta_bstar": 0.00020170503,
        "meta_mean_motion_dot": 1.82e-06,
        "meta_mean_motion_ddot": 0,
        "tle_line1": "1 35777U 93036ARX 25352.32976145  .00000182  00000+0  20171-3 0  9998",
        "tle_line2": "2 35777  73.7704 313.8075 0452013 207.8246 306.1255 13.41305779797599"
      },
      "geometry": {
        "type": "Point",
        "coordinates": [
          -16.520245520465302,
          60.30715448531537
        ]
      }
    },
    {
      "type": "Feature",
      "properties": {
        "norad_id": 35784,
        "name": "COSMOS 2251 DEB",
        "group": "cosmos-2251-debris",
        "lat": -21.951151575741676,
        "lon": -95.3908365621203,
        "alt_km": 701.0157516830741,
        "timestamp": "2025-12-18T23:35:49.459881+00:00",
        "meta_object_name": "COSMOS 2251 DEB",
        "meta_object_id": "1993-036ASE",
        "meta_epoch": "2025-12-17T23:28:57.859680",
        "meta_mean_motion": 14.50055355,
        "meta_eccentricity": 0.00415956,
        "meta_inclination": 74.0403,
        "meta_ra_of_asc_node": 79.8718,
        "meta_arg_of_pericenter": 209.9484,
        "meta_mean_anomaly": 149.9297,
        "meta_ephemeris_type": 0,
        "meta_classification_type": "U",
        "meta_norad_cat_id": 35784,
        "meta_element_set_no": 999,
        "meta_rev_at_epoch": 65782,
        "meta_bstar": 0.00024795111,
        "meta_mean_motion_dot": 9.44e-06,
        "meta_mean_motion_ddot": 0,
        "tle_line1": "1 35784U 93036ASE 25351.97844745  .00000944  00000+0  24795-3 0  9998",
        "tle_line2": "2 35784  74.0403  79.8718 0041595 209.9484 149.9297 14.50055355657829"
      },
      "geometry": {
        "type": "Point",
        "coordinates": [
          -95.3908365621203,
          -21.951151575741676
        ]
      }
    },
    {
      "type": "Feature",
      "properties": {
        "norad_id": 35786,
        "name": "COSMOS 2251 DEB",
        "group": "cosmos-2251-debris",
        "lat": 51.78449159075605,
        "lon": -169.62997389026168,
        "alt_km": 648.2855022851536,
        "timestamp": "2025-12-18T23:35:49.459891+00:00",
        "meta_object_name": "COSMOS 2251 DEB",
        "meta_object_id": "1993-036ASG",
        "meta_epoch": "2025-12-17T11:00:13.182624",
        "meta_mean_motion": 14.66275248,
        "meta_eccentricity": 0.00336818,
        "meta_inclination": 74.0147,
        "meta_ra_of_asc_node": 34.662,
        "meta_arg_of_pericenter": 163.3391,
        "meta_mean_anomaly": 196.8894,
        "meta_ephemeris_type": 0,
        "meta_classification_type": "U",
        "meta_norad_cat_id": 35786,
        "meta_element_set_no": 999,
        "meta_rev_at_epoch": 73477,
        "meta_bstar": 0.00069598569,
        "meta_mean_motion_dot": 3.84e-05,
        "meta_mean_motion_ddot": 0,
        "tle_line1": "1 35786U 93036ASG 25351.45848591  .00003840  00000+0  69599-3 0  9995",
        "tle_line2": "2 35786  74.0147  34.6620 0033681 163.3391 196.8894 14.66275248734770"
      },
      "geometry": {
        "type": "Point",
        "coordinates": [
          -169.62997389026168,
          51.78449159075605
        ]
      }
    },
    {
      "type": "Feature",
      "properties": {
        "norad_id": 35789,
        "name": "COSMOS 2251 DEB",
        "group": "cosmos-2251-debris",
        "lat": -36.58152005527292,
        "lon": 105.1743196357339,
        "alt_km": 807.8955361851358,
        "timestamp": "2025-12-18T23:35:49.459901+00:00",
        "meta_object_name": "COSMOS 2251 DEB",
        "meta_object_id": "1993-036ASK",
        "meta_epoch": "2025-12-17T01:26:23.250912",
        "meta_mean_motion": 14.35989528,
        "meta_eccentricity": 0.00475408,
        "meta_inclination": 74.0381,
        "meta_ra_of_asc_node": 276.4392,
        "meta_arg_of_pericenter": 14.7858,
        "meta_mean_anomaly": 345.4672,
        "meta_ephemeris_type": 0,
        "meta_classification_type": "U",
        "meta_norad_cat_id": 35789,
        "meta_element_set_no": 999,
        "meta_rev_at_epoch": 61289,
        "meta_bstar": 0.00011853028,
        "meta_mean_motion_dot": 3.23e-06,
        "meta_mean_motion_ddot": 0,
        "tle_line1": "1 35789U 93036ASK 25351.05999133  .00000323  00000+0  11853-3 0  9996",
        "tle_line2": "2 35789  74.0381 276.4392 0047540  14.7858 345.4672 14.35989528612894"
      },
      "geometry": {
        "type": "Point",
        "coordinates": [
          105.1743196357339,
          -36.58152005527292
        ]
      }
    },
    {
      "type": "Feature",
      "properties": {
        "norad_id": 35793,
        "name": "COSMOS 2251 DEB",
        "group": "cosmos-2251-debris",
        "lat": 27.142177471957076,
        "lon": -140.5203798060537,
        "alt_km": 630.7102901810467,
        "timestamp": "2025-12-18T23:35:49.459912+00:00",
        "meta_object_name": "COSMOS 2251 DEB",
        "meta_object_id": "1993-036ASP",
        "meta_epoch": "2025-12-16T22:59:16.262304",
        "meta_mean_motion": 14.7878305,
        "meta_eccentricity": 0.00021826,
        "meta_inclination": 74.0414,
        "meta_ra_of_asc_node": 51.8941,
        "meta_arg_of_pericenter": 103.608,
        "meta_mean_anomaly": 69.9436,
        "meta_ephemeris_type": 0,
        "meta_classification_type": "U",
        "meta_norad_cat_id": 35793,
        "meta_element_set_no": 999,
        "meta_rev_at_epoch": 65859,
        "meta_bstar": 0.0012867323,
        "meta_mean_motion_dot": 9.439e-05,
        "meta_mean_motion_ddot": 0,
        "tle_line1": "1 35793U 93036ASP 25350.95782711  .00009439  00000+0  12867-2 0  9993",
        "tle_line2": "2 35793  74.0414  51.8941 0002182 103.6080  69.9436 14.78783050658591"
      },
      "geometry": {
        "type": "Point",
        "coordinates": [
          -140.5203798060537,
          27.142177471957076
        ]
      }
    }
  ]
}